[{"OBJECT_NAME":"SHIJIAN-6 05A (SJ-6 05A)","OBJECT_ID":"2021-122A","EPOCH":"2026-03-09T21:12:10.842048","MEAN_MOTION":14.99085264,"ECCENTRICITY":0.0003221,"INCLINATION":97.4012,"RA_OF_ASC_NODE":42.3306,"ARG_OF_PERICENTER":76.6317,"MEAN_ANOMALY":283.5266,"EPHEMERIS_TYPE":0,"CLASSIFICATION_TYPE":"U","NORAD_CAT_ID":49961,"ELEMENT_SET_NO":999,"REV_AT_EPOCH":23387,"BSTAR":0.00027617,"MEAN_MOTION_DOT":3.299e-5,"MEAN_MOTION_DDOT":0},{"OBJECT_NAME":"STARLINK-33877","OBJECT_ID":"2025-098H","EPOCH":"2026-03-09T22:38:27.560256","MEAN_MOTION":14.98349502,"ECCENTRICITY":0.00026954,"INCLINATION":70.0009,"RA_OF_ASC_NODE":273.6756,"ARG_OF_PERICENTER":259.6474,"MEAN_ANOMALY":100.4382,"EPHEMERIS_TYPE":0,"CLASSIFICATION_TYPE":"U","NORAD_CAT_ID":63933,"ELEMENT_SET_NO":999,"REV_AT_EPOCH":4661,"BSTAR":0.00048096011,"MEAN_MOTION_DOT":5.653e-5,"MEAN_MOTION_DDOT":0}]
